{
  "norad_id": 58456,
  "name": "STARLINK-30960",
  "history": [
    {
      "epoch": "2026-03-28T15:06:51.054048",
      "apogee_km": 286.1778521935221,
      "perigee_km": 233.43408495383028,
      "latitude_deg": 41.838092745658486,
      "longitude_deg": 86.05672672018409,
      "semi_major_axis_km": 6637.942968573676,
      "eccentricity": 0.0039729,
      "inclination_deg": 42.9844,
      "raan_deg": 190.783,
      "arg_perigee_deg": 10.7169,
      "mean_anomaly_deg": 349.455,
      "mean_motion_rev_day": 16.05286254
    }
  ]
}