{"fetched_at":"2026-03-29T16:36:15Z","count":15609,"tles":[{"name":"STARLINK-30960","line1":"1 58456U 23183V   26087.62975757  .02091393  33907-2  27088-2 0  9994","line2":"2 58456  42.9844 190.7830 0039729  10.7169 349.4550 16.05286254130848","category":"Starlink"}]}